{"type": "FeatureCollection", "features": [{"type": "Feature", "properties": {"journey_ty": "中国之旅", "lat": 40.1421, "lon": 94.6619, "notes_for_": "丝绸之路边疆城市", "order_glob": 1.0, "place_na_1": "敦煌市（甘肃）", "place_name": "敦煌"}, "geometry": {"type": "Point", "coordinates": [94.66190000000006, 40.14210000000003]}}, {"type": "Feature", "properties": {"journey_ty": "中国之旅", "lat": 40.047, "lon": 94.821, "notes_for_": "石窟艺术核心", "order_glob": 2.0, "place_na_1": "敦煌莫高窟（甘肃）", "place_name": "莫高窟"}, "geometry": {"type": "Point", "coordinates": [94.82100000000008, 40.047000000000025]}}, {"type": "Feature", "properties": {"journey_ty": "中国之旅", "lat": 40.0466, "lon": 94.8106, "notes_for_": "文化流失象征", "order_glob": 3.0, "place_na_1": "莫高窟道士塔（甘肃敦煌）", "place_name": "道士塔"}, "geometry": {"type": "Point", "coordinates": [94.81060000000008, 40.04660000000007]}}, {"type": "Feature", "properties": {"journey_ty": "中国之旅", "lat": 40.0906, "lon": 94.6642, "notes_for_": "自然—文化景观", "order_glob": 4.0, "place_na_1": "鸣沙山（甘肃敦煌）", "place_name": "鸣沙山"}, "geometry": {"type": "Point", "coordinates": [94.66420000000005, 40.09060000000005]}}, {"type": "Feature", "properties": {"journey_ty": "中国之旅", "lat": 40.084, "lon": 94.6743, "notes_for_": "沙漠绿洲象征", "order_glob": 5.0, "place_na_1": "月牙泉（甘肃敦煌）", "place_name": "月牙泉"}, "geometry": {"type": "Point", "coordinates": [94.67430000000007, 40.08400000000006]}}, {"type": "Feature", "properties": {"journey_ty": "中国之旅", "lat": 39.925, "lon": 94.03, "notes_for_": "古代边关", "order_glob": 6.0, "place_na_1": "阳关遗址（甘肃敦煌）", "place_name": "阳关"}, "geometry": {"type": "Point", "coordinates": [94.03000000000009, 39.92500000000007]}}, {"type": "Feature", "properties": {"journey_ty": "中国之旅", "lat": 39.4704, "lon": 75.9898, "notes_for_": "丝绸之路文明节点", "order_glob": 7.0, "place_na_1": "喀什市（新疆）", "place_name": "喀什"}, "geometry": {"type": "Point", "coordinates": [75.98980000000006, 39.47040000000004]}}, {"type": "Feature", "properties": {"journey_ty": "中国之旅", "lat": 49.2153, "lon": 119.7658, "notes_for_": "北方边疆文化", "order_glob": 8.0, "place_na_1": "呼伦贝尔草原（内蒙古）", "place_name": "呼伦贝尔"}, "geometry": {"type": "Point", "coordinates": [119.76580000000001, 49.21530000000007]}}, {"type": "Feature", "properties": {"journey_ty": "中国之旅", "lat": 44.06, "lon": 129.47, "notes_for_": "清代边疆文化象征", "order_glob": 9.0, "place_na_1": "宁古塔镇（黑龙江省宁安市）", "place_name": "宁古塔"}, "geometry": {"type": "Point", "coordinates": [129.47000000000003, 44.06000000000006]}}, {"type": "Feature", "properties": {"journey_ty": "中国之旅", "lat": 37.189, "lon": 112.175, "notes_for_": "制度与市民文化", "order_glob": 10.0, "place_na_1": "平遥古城（山西）", "place_name": "平遥"}, "geometry": {"type": "Point", "coordinates": [112.17500000000007, 37.18900000000008]}}, {"type": "Feature", "properties": {"journey_ty": "中国之旅", "lat": 37.3581, "lon": 112.3359, "notes_for_": "晋商文化", "order_glob": 11.0, "place_na_1": "祁县（山西晋中）", "place_name": "祁县"}, "geometry": {"type": "Point", "coordinates": [112.33590000000004, 37.358100000000036]}}, {"type": "Feature", "properties": {"journey_ty": "中国之旅", "lat": 37.8706, "lon": 112.5489, "notes_for_": "区域文化中心", "order_glob": 12.0, "place_na_1": "太原市（山西）", "place_name": "太原"}, "geometry": {"type": "Point", "coordinates": [112.54890000000012, 37.870600000000024]}}, {"type": "Feature", "properties": {"journey_ty": "中国之旅", "lat": 40.9997, "lon": 117.937, "notes_for_": "皇权空间", "order_glob": 13.0, "place_na_1": "承德避暑山庄（河北承德）", "place_name": "承德避暑山庄"}, "geometry": {"type": "Point", "coordinates": [117.93700000000001, 40.999700000000075]}}, {"type": "Feature", "properties": {"journey_ty": "中国之旅", "lat": 30.4535, "lon": 114.8719, "notes_for_": "文人历史书写", "order_glob": 14.0, "place_na_1": "赤壁遗址（湖北黄冈）", "place_name": "黄州赤壁"}, "geometry": {"type": "Point", "coordinates": [114.8719000000001, 30.453500000000076]}}, {"type": "Feature", "properties": {"journey_ty": "中国之旅", "lat": 28.184, "lon": 112.9411, "notes_for_": "书院制度文化", "order_glob": 15.0, "place_na_1": "岳麓书院（湖南长沙）", "place_name": "岳麓书院"}, "geometry": {"type": "Point", "coordinates": [112.9411, 28.184000000000026]}}, {"type": "Feature", "properties": {"journey_ty": "中国之旅", "lat": 30.2431, "lon": 120.15, "notes_for_": "江南文化核心", "order_glob": 16.0, "place_na_1": "西湖（浙江杭州）", "place_name": "西湖"}, "geometry": {"type": "Point", "coordinates": [120.15000000000009, 30.243100000000027]}}, {"type": "Feature", "properties": {"journey_ty": "中国之旅", "lat": 30.2436, "lon": 120.1453, "notes_for_": "园林与文人传统", "order_glob": 17.0, "place_na_1": "苏堤（浙江杭州）", "place_name": "苏堤"}, "geometry": {"type": "Point", "coordinates": [120.14530000000002, 30.24360000000007]}}, {"type": "Feature", "properties": {"journey_ty": "中国之旅", "lat": 30.2329, "lon": 120.148, "notes_for_": "民间文化象征", "order_glob": 18.0, "place_na_1": "雷峰塔（浙江杭州）", "place_name": "雷峰塔"}, "geometry": {"type": "Point", "coordinates": [120.14800000000002, 30.23290000000003]}}, {"type": "Feature", "properties": {"journey_ty": "中国之旅", "lat": 29.8737, "lon": 121.5506, "notes_for_": "藏书文化", "order_glob": 19.0, "place_na_1": "天一阁博物院（浙江宁波）", "place_name": "天一阁"}, "geometry": {"type": "Point", "coordinates": [121.55060000000003, 29.873700000000042]}}, {"type": "Feature", "properties": {"journey_ty": "中国之旅", "lat": 31.2989, "lon": 120.5853, "notes_for_": "园林文化", "order_glob": 20.0, "place_na_1": "苏州市（江苏）", "place_name": "苏州"}, "geometry": {"type": "Point", "coordinates": [120.58530000000007, 31.29890000000006]}}, {"type": "Feature", "properties": {"journey_ty": "中国之旅", "lat": 31.2304, "lon": 121.4737, "notes_for_": "现代文化转型", "order_glob": 21.0, "place_na_1": "上海市", "place_name": "上海"}, "geometry": {"type": "Point", "coordinates": [121.47370000000001, 31.23040000000003]}}, {"type": "Feature", "properties": {"journey_ty": "中国之旅", "lat": 31.004, "lon": 103.619, "notes_for_": "水利工程文明象征", "order_glob": 22.0, "place_na_1": "都江堰市（四川）", "place_name": "都江堰"}, "geometry": {"type": "Point", "coordinates": [103.61900000000009, 31.004000000000076]}}, {"type": "Feature", "properties": {"journey_ty": "中国之旅", "lat": 31.0416, "lon": 109.56, "notes_for_": "三峡历史记忆", "order_glob": 23.0, "place_na_1": "白帝城遗址（重庆奉节）", "place_name": "白帝城"}, "geometry": {"type": "Point", "coordinates": [109.56000000000006, 31.041600000000074]}}, {"type": "Feature", "properties": {"journey_ty": "中国之旅", "lat": 49.2153, "lon": 119.7658, "notes_for_": "北方边疆文化", "order_glob": 24.0, "place_na_1": "呼伦贝尔草原（内蒙古）", "place_name": "呼伦贝尔"}, "geometry": {"type": "Point", "coordinates": [119.76580000000001, 49.21530000000007]}}, {"type": "Feature", "properties": {"journey_ty": "世界之旅", "lat": 37.9715, "lon": 23.7267, "notes_for_": "民主与理性象征", "order_glob": 1.0, "place_na_1": "帕特农神庙（希腊雅典）", "place_name": "帕特农神庙"}, "geometry": {"type": "Point", "coordinates": [23.72670000000005, 37.97150000000005]}}, {"type": "Feature", "properties": {"journey_ty": "世界之旅", "lat": 41.8902, "lon": 12.4922, "notes_for_": "帝国权力象征", "order_glob": 2.0, "place_na_1": "罗马斗兽场（意大利罗马）", "place_name": "罗马斗兽场"}, "geometry": {"type": "Point", "coordinates": [12.492200000000025, 41.89020000000005]}}, {"type": "Feature", "properties": {"journey_ty": "世界之旅", "lat": 43.7731, "lon": 11.256, "notes_for_": "文艺复兴象征", "order_glob": 3.0, "place_na_1": "圣母百花大教堂（意大利佛罗伦萨）", "place_name": "圣母百花大教堂"}, "geometry": {"type": "Point", "coordinates": [11.256000000000029, 43.773100000000056]}}, {"type": "Feature", "properties": {"journey_ty": "世界之旅", "lat": 48.8606, "lon": 2.3376, "notes_for_": "博物馆制度代表", "order_glob": 4.0, "place_na_1": "卢浮宫（法国巴黎）", "place_name": "卢浮宫"}, "geometry": {"type": "Point", "coordinates": [2.337600000000066, 48.860600000000034]}}, {"type": "Feature", "properties": {"journey_ty": "世界之旅", "lat": 48.853, "lon": 2.3499, "notes_for_": "宗教与城市记忆", "order_glob": 5.0, "place_na_1": "巴黎圣母院（法国巴黎）", "place_name": "巴黎圣母院"}, "geometry": {"type": "Point", "coordinates": [2.349900000000048, 48.853000000000065]}}, {"type": "Feature", "properties": {"journey_ty": "世界之旅", "lat": 29.9792, "lon": 31.1342, "notes_for_": "古文明时间尺度", "order_glob": 6.0, "place_na_1": "吉萨金字塔群（埃及开罗）", "place_name": "吉萨金字塔群"}, "geometry": {"type": "Point", "coordinates": [31.134200000000078, 29.97920000000005]}}, {"type": "Feature", "properties": {"journey_ty": "人生之旅", "lat": 30.037, "lon": 121.154, "notes_for_": "人生起点", "order_glob": 1.0, "place_na_1": "余姚市（浙江）", "place_name": "余姚"}, "geometry": {"type": "Point", "coordinates": [121.15400000000011, 30.037000000000035]}}, {"type": "Feature", "properties": {"journey_ty": "人生之旅", "lat": 31.2304, "lon": 121.4737, "notes_for_": "公共文化空间", "order_glob": 2.0, "place_na_1": "上海市", "place_name": "上海"}, "geometry": {"type": "Point", "coordinates": [121.47370000000001, 31.23040000000003]}}, {"type": "Feature", "properties": {"journey_ty": "人生之旅", "lat": 39.9042, "lon": 116.4074, "notes_for_": "文化与权力中心", "order_glob": 3.0, "place_na_1": "北京市", "place_name": "北京"}, "geometry": {"type": "Point", "coordinates": [116.40740000000005, 39.90420000000006]}}, {"type": "Feature", "properties": {"journey_ty": "人生之旅", "lat": 40.1421, "lon": 94.6619, "notes_for_": "精神回归", "order_glob": 4.0, "place_na_1": "敦煌市（甘肃）", "place_name": "敦煌"}, "geometry": {"type": "Point", "coordinates": [94.66190000000006, 40.14210000000003]}}]}